OBJECT_NAME,OBJECT_ID,EPOCH,MEAN_MOTION,ECCENTRICITY,INCLINATION,RA_OF_ASC_NODE,ARG_OF_PERICENTER,MEAN_ANOMALY,EPHEMERIS_TYPE,CLASSIFICATION_TYPE,NORAD_CAT_ID,ELEMENT_SET_NO,REV_AT_EPOCH,BSTAR,MEAN_MOTION_DOT,MEAN_MOTION_DDOT
COSMOS 2565,2022-163A,2026-07-04T23:34:58.332576,13.96679152,.00066859,67.1494,64.0055,272.5097,87.5223,0,U,54381,999,18325,.15637738E-4,-.54E-6,0
JIAOTONG VDES,2022-164A,2026-07-05T00:16:41.528928,14.46082199,.00084677,98.2414,204.6958,273.9533,86.0692,0,U,54588,999,18865,.10265417E-3,.324E-5,0
GAOFEN-5 01A,2022-165A,2026-07-04T22:59:34.069344,14.57713834,.00013279,98.2354,123.1028,5.4496,354.6717,0,U,54640,999,19000,.12495262E-3,.525E-5,0
ONEWEB-0527,2022-166A,2026-07-04T14:05:01.573728,13.21827042,.00020316,87.9240,240.5349,99.2931,260.8433,0,U,54642,999,17383,.32725274E-4,.27E-6,0
ONEWEB-0528,2022-166B,2026-07-04T14:06:13.381632,13.21826067,.00020311,87.9240,240.5372,104.0230,256.1129,0,U,54643,999,17384,.10722487E-3,.57E-6,0
ONEWEB-0539,2022-166C,2026-07-04T20:27:42.469632,13.21827714,.00018773,87.9249,240.4572,94.8606,265.2743,0,U,54644,999,17387,.23062909E-4,.23E-6,0
ONEWEB-0540,2022-166D,2026-07-04T20:37:35.634144,13.21825783,.00019786,87.9233,240.4848,94.1339,266.0021,0,U,54645,999,17386,-.47776354E-3,-.184E-5,0
ONEWEB-0542,2022-166E,2026-07-04T20:42:16.363296,13.21825251,.00018426,87.9252,240.4544,92.3873,267.7472,0,U,54646,999,17387,.26444189E-4,.24E-6,0
ONEWEB-0545,2022-166F,2026-07-04T21:40:24.727008,13.21825554,.00016489,87.9240,240.4567,82.2472,277.8849,0,U,54647,999,17384,-.9282789E-4,-.25E-6,0
ONEWEB-0580,2022-166G,2026-07-04T13:48:00.527040,13.21823199,.00019653,87.9240,240.5218,85.5545,274.5813,0,U,54648,999,17384,.96825383E-4,.53E-6,0
ONEWEB-0582,2022-166H,2026-07-04T09:21:35.041824,13.21827975,.000183,87.9240,240.5509,85.8240,274.3103,0,U,54649,999,17379,.14907509E-3,.75E-6,0
ONEWEB-0583,2022-166J,2026-07-04T20:32:35.069280,13.21825379,.00019556,87.9236,240.4815,94.6519,265.4838,0,U,54650,999,17386,.17728201E-3,.86E-6,0
ONEWEB-0584,2022-166K,2026-07-04T10:07:36.513696,13.21824150,.00020441,87.9238,240.5531,94.6702,265.4665,0,U,54651,999,17379,.87662292E-4,.49E-6,0
ONEWEB-0585,2022-166L,2026-07-04T14:19:31.786752,13.21827838,.00021371,87.9242,240.5060,101.0482,259.0892,0,U,54652,999,17382,.94494795E-4,.52E-6,0
ONEWEB-0586,2022-166M,2026-07-04T21:54:56.680128,13.21825160,.00018989,87.9241,240.4682,94.9952,265.1398,0,U,54653,999,17386,-.31848869E-4,0,0
ONEWEB-0587,2022-166N,2026-07-04T20:20:28.619808,13.21824937,.00023165,87.9251,240.4566,103.4538,256.6854,0,U,54654,999,17401,-.56312677E-4,-.1E-6,0
ONEWEB-0589,2022-166P,2026-07-04T21:50:06.006336,13.21825333,.00017913,87.9236,240.4541,72.7960,287.3370,0,U,54655,999,17388,-.22098031E-3,-.78E-6,0
ONEWEB-0590,2022-166Q,2026-07-04T20:37:12.696672,13.21825486,.00023979,87.9242,240.4560,89.6426,270.4983,0,U,54656,999,17386,.17040502E-3,.83E-6,0
ONEWEB-0591,2022-166R,2026-07-04T13:38:21.547680,13.21827490,.00021112,87.9238,240.5273,95.1689,264.9685,0,U,54657,999,17385,.10617411E-3,.57E-6,0
ONEWEB-0592,2022-166S,2026-07-04T10:05:10.145184,13.21823841,.00020289,87.9251,240.5367,97.0048,263.1317,0,U,54658,999,17371,.56766001E-4,.36E-6,0
ONEWEB-0593,2022-166T,2026-07-04T14:14:41.976096,13.21826104,.0001847,87.9241,240.5124,97.2657,262.8686,0,U,54659,999,17384,.375422E-5,.15E-6,0
ONEWEB-0594,2022-166U,2026-07-04T21:59:45.222432,13.21825111,.00021188,87.9239,240.4643,101.8785,258.2587,0,U,54660,999,17390,.20663165E-3,.98E-6,0
ONEWEB-0595,2022-166V,2026-07-04T10:31:51.206304,13.21825537,.00022534,87.9248,240.5413,100.6811,259.4577,0,U,54661,999,17381,-.10493902E-4,.9E-7,0
ONEWEB-0596,2022-166W,2026-07-04T09:55:29.674560,13.21827969,.00021839,87.9245,240.5569,98.1671,261.9711,0,U,54662,999,17381,.19859663E-3,.95E-6,0
ONEWEB-0597,2022-166X,2026-07-04T20:22:51.991104,13.21827837,.00019459,87.9238,240.4728,94.7146,265.4210,0,U,54663,999,17387,.7066221E-4,.42E-6,0
ONEWEB-0600,2022-166Y,2026-07-04T10:51:14.250528,13.21825656,.00018181,87.9241,240.5436,101.9521,258.1817,0,U,54664,999,17379,-.20809054E-3,-.73E-6,0
ONEWEB-0601,2022-166Z,2026-07-04T10:39:06.207840,13.21824986,.00018086,87.9241,240.5605,89.6985,270.4356,0,U,54665,999,17398,-.80545511E-4,-.2E-6,0
ONEWEB-0602,2022-166AA,2026-07-04T20:43:27.193152,13.21827773,.00018403,87.9240,240.4833,100.6411,259.4930,0,U,54666,999,17388,-.16441616E-4,.6E-7,0
ONEWEB-0603,2022-166AB,2026-07-04T09:57:55.427040,13.21828235,.00019673,87.9251,240.5314,96.0641,264.0717,0,U,54667,999,17375,.36013111E-3,.162E-5,0
